{"type": "FeatureCollection", "features": [ {"type": "Feature", "properties": {"norad_id": 34303, "name": "COSMOS 2251 DEB", "group": "cosmos-2251-debris", "lat": 29.53095077182404, "lon": 87.4719109555953, "alt_km": 716.7785285026566, "timestamp": "2025-12-18T15:47:11.619346+00:00", "meta": {"OBJECT_NAME": "COSMOS 2251 DEB", "OBJECT_ID": "1993-036MZ", "EPOCH": "2025-12-17T21:13:52.968576", "MEAN_MOTION": 14.54519269, "ECCENTRICITY": 0.01352651, "INCLINATION": 74.0058, "RA_OF_ASC_NODE": 278.2879, "ARG_OF_PERICENTER": 55.3393, "MEAN_ANOMALY": 5.4841, "EPHEMERIS_TYPE": 0, "CLASSIFICATION_TYPE": "U", "NORAD_CAT_ID": 34303, "ELEMENT_SET_NO": 999, "REV_AT_EPOCH": 88037, "BSTAR": 0.0011410414, "MEAN_MOTION_DOT": 5.47e-05, "MEAN_MOTION_DDOT": 0}, "tle": {"line1": "1 34303U 93036MZ  25351.88464084  .00005470  00000+0  11410-2 0  9996", "line2": "2 34303  74.0058 278.2879 0135265  55.3393   5.4841 14.54519269880376"}}, "geometry": {"type": "Point", "coordinates": [87.4719109555953, 29.53095077182404]}}, {"type": "Feature", "properties": {"norad_id": 34304, "name": "COSMOS 2251 DEB", "group": "cosmos-2251-debris", "lat": -73.52642423543558, "lon": 7.484490543501255, "alt_km": 684.5023210959889, "timestamp": "2025-12-18T15:47:11.619356+00:00", "meta": {"OBJECT_NAME": "COSMOS 2251 DEB", "OBJECT_ID": "1993-036NA", "EPOCH": "2025-12-17T19:13:37.455744", "MEAN_MOTION": 14.37907185, "ECCENTRICITY": 0.01289769, "INCLINATION": 74.0131, "RA_OF_ASC_NODE": 113.2585, "ARG_OF_PERICENTER": 250.0158, "MEAN_ANOMALY": 262.9189, "EPHEMERIS_TYPE": 0, "CLASSIFICATION_TYPE": "U", "NORAD_CAT_ID": 34304, "ELEMENT_SET_NO": 999, "REV_AT_EPOCH": 87369, "BSTAR": 0.0011979785, "MEAN_MOTION_DOT": 3.955e-05, "MEAN_MOTION_DDOT": 0}, "tle": {"line1": "1 34304U 93036NA  25351.80112796  .00003955  00000+0  11980-2 0  9997", "line2": "2 34304  74.0131 113.2585 0128976 250.0158 262.9189 14.37907185873696"}}, "geometry": {"type": "Point", "coordinates": [7.484490543501255, -73.52642423543558]}}, {"type": "Feature", "properties": {"norad_id": 34307, "name": "COSMOS 2251 DEB", "group": "cosmos-2251-debris", "lat": 45.8119036112017, "lon": 106.51341228687079, "alt_km": 760.7071079206462, "timestamp": "2025-12-18T15:47:11.619366+00:00", "meta": {"OBJECT_NAME": "COSMOS 2251 DEB", "OBJECT_ID": "1993-036ND", "EPOCH": "2025-12-18T06:54:14.448672", "MEAN_MOTION": 13.54328729, "ECCENTRICITY": 0.03918837, "INCLINATION": 74.0532, "RA_OF_ASC_NODE": 304.2126, "ARG_OF_PERICENTER": 133.9523, "MEAN_ANOMALY": 354.0614, "EPHEMERIS_TYPE": 0, "CLASSIFICATION_TYPE": "U", "NORAD_CAT_ID": 34307, "ELEMENT_SET_NO": 999, "REV_AT_EPOCH": 82937, "BSTAR": 0.00053684737, "MEAN_MOTION_DOT": 5.78e-06, "MEAN_MOTION_DDOT": 0}, "tle": {"line1": "1 34307U 93036ND  25352.28766723  .00000578  00000+0  53685-3 0  9995", "line2": "2 34307  74.0532 304.2126 0391883 133.9523 354.0614 13.54328729829372"}}, "geometry": {"type": "Point", "coordinates": [106.51341228687079, 45.8119036112017]}}, {"type": "Feature", "properties": {"norad_id": 34313, "name": "COSMOS 2251 DEB", "group": "cosmos-2251-debris", "lat": -17.301695104425182, "lon": 118.18371220968189, "alt_km": 514.9123925202084, "timestamp": "2025-12-18T15:47:11.619376+00:00", "meta": {"OBJECT_NAME": "COSMOS 2251 DEB", "OBJECT_ID": "1993-036NK", "EPOCH": "2025-12-18T05:26:32.508960", "MEAN_MOTION": 15.20023979, "ECCENTRICITY": 0.00116233, "INCLINATION": 73.9718, "RA_OF_ASC_NODE": 293.9527, "ARG_OF_PERICENTER": 72.706, "MEAN_ANOMALY": 287.5407, "EPHEMERIS_TYPE": 0, "CLASSIFICATION_TYPE": "U", "NORAD_CAT_ID": 34313, "ELEMENT_SET_NO": 999, "REV_AT_EPOCH": 89148, "BSTAR": 0.0040606405, "MEAN_MOTION_DOT": 0.00088746, "MEAN_MOTION_DDOT": 0}, "tle": {"line1": "1 34313U 93036NK  25352.22676515  .00088746  00000+0  40606-2 0  9996", "line2": "2 34313  73.9718 293.9527 0011623  72.7060 287.5407 15.20023979891484"}}, "geometry": {"type": "Point", "coordinates": [118.18371220968189, -17.301695104425182]}}, {"type": "Feature", "properties": {"norad_id": 34314, "name": "COSMOS 2251 DEB", "group": "cosmos-2251-debris", "lat": -23.555429684139742, "lon": 125.00547320738295, "alt_km": 909.9222532057565, "timestamp": "2025-12-18T15:47:11.619387+00:00", "meta": {"OBJECT_NAME": "COSMOS 2251 DEB", "OBJECT_ID": "1993-036NL", "EPOCH": "2025-12-18T07:04:11.146080", "MEAN_MOTION": 14.17436557, "ECCENTRICITY": 0.01030967, "INCLINATION": 74.0056, "RA_OF_ASC_NODE": 298.4701, "ARG_OF_PERICENTER": 42.8289, "MEAN_ANOMALY": 108.6734, "EPHEMERIS_TYPE": 0, "CLASSIFICATION_TYPE": "U", "NORAD_CAT_ID": 34314, "ELEMENT_SET_NO": 999, "REV_AT_EPOCH": 86736, "BSTAR": 0.00053182073, "MEAN_MOTION_DOT": 1.111e-05, "MEAN_MOTION_DDOT": 0}, "tle": {"line1": "1 34314U 93036NL  25352.29457345  .00001111  00000+0  53182-3 0  9997", "line2": "2 34314  74.0056 298.4701 0103096  42.8289 108.6734 14.17436557867364"}}, "geometry": {"type": "Point", "coordinates": [125.00547320738295, -23.555429684139742]}}, {"type": "Feature", "properties": {"norad_id": 34316, "name": "COSMOS 2251 DEB", "group": "cosmos-2251-debris", "lat": -1.236453605952357, "lon": 145.38552329046928, "alt_km": 598.7434571268423, "timestamp": "2025-12-18T15:47:11.619397+00:00", "meta": {"OBJECT_NAME": "COSMOS 2251 DEB", "OBJECT_ID": "1993-036NN", "EPOCH": "2025-12-18T05:19:20.370720", "MEAN_MOTION": 14.91994244, "ECCENTRICITY": 0.00086979, "INCLINATION": 74.0647, "RA_OF_ASC_NODE": 325.9054, "ARG_OF_PERICENTER": 47.9486, "MEAN_ANOMALY": 312.2436, "EPHEMERIS_TYPE": 0, "CLASSIFICATION_TYPE": "U", "NORAD_CAT_ID": 34316, "ELEMENT_SET_NO": 999, "REV_AT_EPOCH": 89291, "BSTAR": 0.0014581468, "MEAN_MOTION_DOT": 0.00014787, "MEAN_MOTION_DDOT": 0}, "tle": {"line1": "1 34316U 93036NN  25352.22176355  .00014787  00000+0  14581-2 0  9993", "line2": "2 34316  74.0647 325.9054 0008697  47.9486 312.2436 14.91994244892910"}}, "geometry": {"type": "Point", "coordinates": [145.38552329046928, -1.236453605952357]}}, {"type": "Feature", "properties": {"norad_id": 34317, "name": "COSMOS 2251 DEB", "group": "cosmos-2251-debris", "lat": 63.09320637304078, "lon": 171.39128598117395, "alt_km": 1035.6674103051319, "timestamp": "2025-12-18T15:47:11.619407+00:00", "meta": {"OBJECT_NAME": "COSMOS 2251 DEB", "OBJECT_ID": "1993-036NP", "EPOCH": "2025-12-18T05:01:10.458912", "MEAN_MOTION": 13.65127553, "ECCENTRICITY": 0.03367075, "INCLINATION": 73.9245, "RA_OF_ASC_NODE": 26.754, "ARG_OF_PERICENTER": 14.9551, "MEAN_ANOMALY": 49.1105, "EPHEMERIS_TYPE": 0, "CLASSIFICATION_TYPE": "U", "NORAD_CAT_ID": 34317, "ELEMENT_SET_NO": 999, "REV_AT_EPOCH": 83694, "BSTAR": 0.00042295691, "MEAN_MOTION_DOT": 4.83e-06, "MEAN_MOTION_DDOT": 0}, "tle": {"line1": "1 34317U 93036NP  25352.20914883  .00000483  00000+0  42296-3 0  9991", "line2": "2 34317  73.9245  26.7540 0336707  14.9551  49.1105 13.65127553836943"}}, "geometry": {"type": "Point", "coordinates": [171.39128598117395, 63.09320637304078]}}, {"type": "Feature", "properties": {"norad_id": 34321, "name": "COSMOS 2251 DEB", "group": "cosmos-2251-debris", "lat": 19.80543437464515, "lon": -40.677488996239845, "alt_km": 729.9037411568243, "timestamp": "2025-12-18T15:47:11.619417+00:00", "meta": {"OBJECT_NAME": "COSMOS 2251 DEB", "OBJECT_ID": "1993-036NT", "EPOCH": "2025-12-17T21:24:20.903040", "MEAN_MOTION": 14.50077783, "ECCENTRICITY": 0.00159324, "INCLINATION": 74.0276, "RA_OF_ASC_NODE": 146.6813, "ARG_OF_PERICENTER": 275.9499, "MEAN_ANOMALY": 207.0691, "EPHEMERIS_TYPE": 0, "CLASSIFICATION_TYPE": "U", "NORAD_CAT_ID": 34321, "ELEMENT_SET_NO": 999, "REV_AT_EPOCH": 88561, "BSTAR": 0.00046250348, "MEAN_MOTION_DOT": 1.769e-05, "MEAN_MOTION_DDOT": 0}, "tle": {"line1": "1 34321U 93036NT  25351.89190860  .00001769  00000+0  46250-3 0  9993", "line2": "2 34321  74.0276 146.6813 0015932 275.9499 207.0691 14.50077783885610"}}, "geometry": {"type": "Point", "coordinates": [-40.677488996239845, 19.80543437464515]}}, {"type": "Feature", "properties": {"norad_id": 34323, "name": "COSMOS 2251 DEB", "group": "cosmos-2251-debris", "lat": -23.54546888067674, "lon": 104.29363787872556, "alt_km": 692.5208147756639, "timestamp": "2025-12-18T15:47:11.619427+00:00", "meta": {"OBJECT_NAME": "COSMOS 2251 DEB", "OBJECT_ID": "1993-036NV", "EPOCH": "2025-12-17T19:18:44.714016", "MEAN_MOTION": 14.7458924, "ECCENTRICITY": 0.00583711, "INCLINATION": 73.9529, "RA_OF_ASC_NODE": 113.1727, "ARG_OF_PERICENTER": 156.0162, "MEAN_ANOMALY": 332.7493, "EPHEMERIS_TYPE": 0, "CLASSIFICATION_TYPE": "U", "NORAD_CAT_ID": 34323, "ELEMENT_SET_NO": 999, "REV_AT_EPOCH": 88514, "BSTAR": 0.0017862883, "MEAN_MOTION_DOT": 0.00012223, "MEAN_MOTION_DDOT": 0}, "tle": {"line1": "1 34323U 93036NV  25351.80468419  .00012223  00000+0  17863-2 0  9998", "line2": "2 34323  73.9529 113.1727 0058371 156.0162 332.7493 14.74589240885140"}}, "geometry": {"type": "Point", "coordinates": [104.29363787872556, -23.54546888067674]}}, {"type": "Feature", "properties": {"norad_id": 34325, "name": "COSMOS 2251 DEB", "group": "cosmos-2251-debris", "lat": 40.13126390615805, "lon": -11.739865826312132, "alt_km": 804.7862193185119, "timestamp": "2025-12-18T15:47:11.619438+00:00", "meta": {"OBJECT_NAME": "COSMOS 2251 DEB", "OBJECT_ID": "1993-036NX", "EPOCH": "2025-12-17T22:38:07.226880", "MEAN_MOTION": 14.04503864, "ECCENTRICITY": 0.01918485, "INCLINATION": 73.8702, "RA_OF_ASC_NODE": 183.6388, "ARG_OF_PERICENTER": 199.9789, "MEAN_ANOMALY": 287.7508, "EPHEMERIS_TYPE": 0, "CLASSIFICATION_TYPE": "U", "NORAD_CAT_ID": 34325, "ELEMENT_SET_NO": 999, "REV_AT_EPOCH": 85588, "BSTAR": 0.0014716745, "MEAN_MOTION_DOT": 2.742e-05, "MEAN_MOTION_DDOT": 0}, "tle": {"line1": "1 34325U 93036NX  25351.94313920  .00002742  00000+0  14717-2 0  9991", "line2": "2 34325  73.8702 183.6388 0191848 199.9789 287.7508 14.04503864855882"}}, "geometry": {"type": "Point", "coordinates": [-11.739865826312132, 40.13126390615805]}}]}